{"fetched_at":"2026-03-30T06:02:59Z","count":15439,"tles":[{"name":"YAOGAN-30 07C","line1":"1 45462U 20021C   26087.71932979  .00003601  00000+0  26926-3 0  9993","line2":"2 45462  34.9967 338.8560 0000734 357.6078   2.4627 15.02299923328303","category":"Other"}]}